CCSDS_OMM_VERS = 2.0
CREATION_DATE  = 
ORIGINATOR     = 

OBJECT_NAME    = STARLINK-36583
OBJECT_ID      = 2026-014P
CENTER_NAME    = EARTH
REF_FRAME      = TEME
TIME_SYSTEM    = UTC
MEAN_ELEMENT_THEORY = SGP/SGP4

EPOCH          = 2026-02-13T10:38:08.380320
MEAN_MOTION    = 15.75233608
ECCENTRICITY   = .0001708
INCLINATION    = 97.2846
RA_OF_ASC_NODE = 288.1333
ARG_OF_PERICENTER = 76.0707
MEAN_ANOMALY   = 284.0748

EPHEMERIS_TYPE = 0
CLASSIFICATION_TYPE = U
NORAD_CAT_ID   = 67545
ELEMENT_SET_NO = 999
REV_AT_EPOCH   = 475
BSTAR          = .13259E-2
MEAN_MOTION_DOT = .202795E-2
MEAN_MOTION_DDOT = 0

CCSDS_OMM_VERS = 2.0
CREATION_DATE  = 
ORIGINATOR     = 

OBJECT_NAME    = STARLINK-36580
OBJECT_ID      = 2026-014Q
CENTER_NAME    = EARTH
REF_FRAME      = TEME
TIME_SYSTEM    = UTC
MEAN_ELEMENT_THEORY = SGP/SGP4

EPOCH          = 2026-02-13T12:00:02.998944
MEAN_MOTION    = 15.75138757
ECCENTRICITY   = .0001419
INCLINATION    = 97.2855
RA_OF_ASC_NODE = 288.2388
ARG_OF_PERICENTER = 95.1111
MEAN_ANOMALY   = 329.3959

EPHEMERIS_TYPE = 0
CLASSIFICATION_TYPE = U
NORAD_CAT_ID   = 67546
ELEMENT_SET_NO = 999
REV_AT_EPOCH   = 480
BSTAR          = .63726E-3
MEAN_MOTION_DOT = .95781E-3
MEAN_MOTION_DDOT = 0

CCSDS_OMM_VERS = 2.0
CREATION_DATE  = 
ORIGINATOR     = 

OBJECT_NAME    = STARLINK-36584
OBJECT_ID      = 2026-014R
CENTER_NAME    = EARTH
REF_FRAME      = TEME
TIME_SYSTEM    = UTC
MEAN_ELEMENT_THEORY = SGP/SGP4

EPOCH          = 2026-02-13T11:29:26.730240
MEAN_MOTION    = 15.80856314
ECCENTRICITY   = .0001119
INCLINATION    = 97.2873
RA_OF_ASC_NODE = 288.2327
ARG_OF_PERICENTER = 86.2007
MEAN_ANOMALY   = 273.9389

EPHEMERIS_TYPE = 0
CLASSIFICATION_TYPE = U
NORAD_CAT_ID   = 67547
ELEMENT_SET_NO = 999
REV_AT_EPOCH   = 476
BSTAR          = .58457E-3
MEAN_MOTION_DOT = .113505E-2
MEAN_MOTION_DDOT = 0

CCSDS_OMM_VERS = 2.0
CREATION_DATE  = 
ORIGINATOR     = 

OBJECT_NAME    = STARLINK-36586
OBJECT_ID      = 2026-014S
CENTER_NAME    = EARTH
REF_FRAME      = TEME
TIME_SYSTEM    = UTC
MEAN_ELEMENT_THEORY = SGP/SGP4

EPOCH          = 2026-02-13T11:27:28.171296
MEAN_MOTION    = 15.80855577
ECCENTRICITY   = .0001208
INCLINATION    = 97.2856
RA_OF_ASC_NODE = 288.2418
ARG_OF_PERICENTER = 86.3756
MEAN_ANOMALY   = 273.7651

EPHEMERIS_TYPE = 0
CLASSIFICATION_TYPE = U
NORAD_CAT_ID   = 67548
ELEMENT_SET_NO = 999
REV_AT_EPOCH   = 476
BSTAR          = .56234E-3
MEAN_MOTION_DOT = .109126E-2
MEAN_MOTION_DDOT = 0

CCSDS_OMM_VERS = 2.0
CREATION_DATE  = 
ORIGINATOR     = 

OBJECT_NAME    = STARLINK-36564
OBJECT_ID      = 2026-014T
CENTER_NAME    = EARTH
REF_FRAME      = TEME
TIME_SYSTEM    = UTC
MEAN_ELEMENT_THEORY = SGP/SGP4

EPOCH          = 2026-02-13T11:55:23.234880
MEAN_MOTION    = 15.75244721
ECCENTRICITY   = .0001569
INCLINATION    = 97.2848
RA_OF_ASC_NODE = 288.2145
ARG_OF_PERICENTER = 88.5688
MEAN_ANOMALY   = 271.5757

EPHEMERIS_TYPE = 0
CLASSIFICATION_TYPE = U
NORAD_CAT_ID   = 67549
ELEMENT_SET_NO = 999
REV_AT_EPOCH   = 470
BSTAR          = .129E-2
MEAN_MOTION_DOT = .197257E-2
MEAN_MOTION_DDOT = 0

CCSDS_OMM_VERS = 2.0
CREATION_DATE  = 
ORIGINATOR     = 

OBJECT_NAME    = STARLINK-36563
OBJECT_ID      = 2026-014U
CENTER_NAME    = EARTH
REF_FRAME      = TEME
TIME_SYSTEM    = UTC
MEAN_ELEMENT_THEORY = SGP/SGP4

EPOCH          = 2026-02-13T10:17:48.677568
MEAN_MOTION    = 15.75222492
ECCENTRICITY   = .0001349
INCLINATION    = 97.2852
RA_OF_ASC_NODE = 288.1528
ARG_OF_PERICENTER = 73.8581
MEAN_ANOMALY   = 286.2833

EPHEMERIS_TYPE = 0
CLASSIFICATION_TYPE = U
NORAD_CAT_ID   = 67550
ELEMENT_SET_NO = 999
REV_AT_EPOCH   = 475
BSTAR          = .10576E-2
MEAN_MOTION_DOT = .160847E-2
MEAN_MOTION_DDOT = 0

CCSDS_OMM_VERS = 2.0
CREATION_DATE  = 
ORIGINATOR     = 

OBJECT_NAME    = STARLINK-36566
OBJECT_ID      = 2026-014V
CENTER_NAME    = EARTH
REF_FRAME      = TEME
TIME_SYSTEM    = UTC
MEAN_ELEMENT_THEORY = SGP/SGP4

EPOCH          = 2026-02-13T10:14:45.615840
MEAN_MOTION    = 15.75236692
ECCENTRICITY   = .0001331
INCLINATION    = 97.2853
RA_OF_ASC_NODE = 288.1558
ARG_OF_PERICENTER = 85.8749
MEAN_ANOMALY   = 274.2668

EPHEMERIS_TYPE = 0
CLASSIFICATION_TYPE = U
NORAD_CAT_ID   = 67551
ELEMENT_SET_NO = 999
REV_AT_EPOCH   = 474
BSTAR          = .12964E-2
MEAN_MOTION_DOT = .198195E-2
MEAN_MOTION_DDOT = 0

CCSDS_OMM_VERS = 2.0
CREATION_DATE  = 
ORIGINATOR     = 

OBJECT_NAME    = STARLINK-36567
OBJECT_ID      = 2026-014W
CENTER_NAME    = EARTH
REF_FRAME      = TEME
TIME_SYSTEM    = UTC
MEAN_ELEMENT_THEORY = SGP/SGP4

EPOCH          = 2026-02-13T10:26:57.643296
MEAN_MOTION    = 15.75241215
ECCENTRICITY   = .0002066
INCLINATION    = 97.2855
RA_OF_ASC_NODE = 288.1408
ARG_OF_PERICENTER = 62.1462
MEAN_ANOMALY   = 298.0012

EPHEMERIS_TYPE = 0
CLASSIFICATION_TYPE = U
NORAD_CAT_ID   = 67552
ELEMENT_SET_NO = 999
REV_AT_EPOCH   = 474
BSTAR          = .1421E-2
MEAN_MOTION_DOT = .217807E-2
MEAN_MOTION_DDOT = 0

CCSDS_OMM_VERS = 2.0
CREATION_DATE  = 
ORIGINATOR     = 

OBJECT_NAME    = STARLINK-36569
OBJECT_ID      = 2026-014X
CENTER_NAME    = EARTH
REF_FRAME      = TEME
TIME_SYSTEM    = UTC
MEAN_ELEMENT_THEORY = SGP/SGP4

EPOCH          = 2026-02-13T12:00:02.998944
MEAN_MOTION    = 15.75938784
ECCENTRICITY   = .0001345
INCLINATION    = 97.2861
RA_OF_ASC_NODE = 288.2717
ARG_OF_PERICENTER = 92.7621
MEAN_ANOMALY   = 61.3351

EPHEMERIS_TYPE = 0
CLASSIFICATION_TYPE = U
NORAD_CAT_ID   = 67553
ELEMENT_SET_NO = 999
REV_AT_EPOCH   = 480
BSTAR          = -.74449E-2
MEAN_MOTION_DOT = -.1035939E-1
MEAN_MOTION_DDOT = 0

CCSDS_OMM_VERS = 2.0
CREATION_DATE  = 
ORIGINATOR     = 

OBJECT_NAME    = STARLINK-36395
OBJECT_ID      = 2026-014Y
CENTER_NAME    = EARTH
REF_FRAME      = TEME
TIME_SYSTEM    = UTC
MEAN_ELEMENT_THEORY = SGP/SGP4

EPOCH          = 2026-02-13T10:18:49.695840
MEAN_MOTION    = 15.75235766
ECCENTRICITY   = .000179
INCLINATION    = 97.2858
RA_OF_ASC_NODE = 288.1488
ARG_OF_PERICENTER = 63.1284
MEAN_ANOMALY   = 297.0164

EPHEMERIS_TYPE = 0
CLASSIFICATION_TYPE = U
NORAD_CAT_ID   = 67554
ELEMENT_SET_NO = 999
REV_AT_EPOCH   = 474
BSTAR          = .12444E-2
MEAN_MOTION_DOT = .190046E-2
MEAN_MOTION_DDOT = 0

CCSDS_OMM_VERS = 2.0
CREATION_DATE  = 
ORIGINATOR     = 

OBJECT_NAME    = STARLINK-36559
OBJECT_ID      = 2026-014Z
CENTER_NAME    = EARTH
REF_FRAME      = TEME
TIME_SYSTEM    = UTC
MEAN_ELEMENT_THEORY = SGP/SGP4

EPOCH          = 2026-02-13T10:20:51.557856
MEAN_MOTION    = 15.75218792
ECCENTRICITY   = .0001419
INCLINATION    = 97.2860
RA_OF_ASC_NODE = 288.1471
ARG_OF_PERICENTER = 75.2808
MEAN_ANOMALY   = 284.8614

EPHEMERIS_TYPE = 0
CLASSIFICATION_TYPE = U
NORAD_CAT_ID   = 67555
ELEMENT_SET_NO = 999
REV_AT_EPOCH   = 474
BSTAR          = .95597E-3
MEAN_MOTION_DOT = .145087E-2
MEAN_MOTION_DDOT = 0

CCSDS_OMM_VERS = 2.0
CREATION_DATE  = 
ORIGINATOR     = 

OBJECT_NAME    = MR-1
OBJECT_ID      = 2026-015A
CENTER_NAME    = EARTH
REF_FRAME      = TEME
TIME_SYSTEM    = UTC
MEAN_ELEMENT_THEORY = SGP/SGP4

EPOCH          = 2026-02-13T03:42:13.471776
MEAN_MOTION    = 13.52686104
ECCENTRICITY   = .00051282
INCLINATION    = 88.9973
RA_OF_ASC_NODE = 281.1568
ARG_OF_PERICENTER = 82.3086
MEAN_ANOMALY   = 277.8648

EPHEMERIS_TYPE = 0
CLASSIFICATION_TYPE = U
NORAD_CAT_ID   = 67556
ELEMENT_SET_NO = 999
REV_AT_EPOCH   = 294
BSTAR          = .41957443E-4
MEAN_MOTION_DOT = .4E-6
MEAN_MOTION_DDOT = 0

CCSDS_OMM_VERS = 2.0
CREATION_DATE  = 
ORIGINATOR     = 

OBJECT_NAME    = MR-2
OBJECT_ID      = 2026-015B
CENTER_NAME    = EARTH
REF_FRAME      = TEME
TIME_SYSTEM    = UTC
MEAN_ELEMENT_THEORY = SGP/SGP4

EPOCH          = 2026-02-13T01:56:16.416384
MEAN_MOTION    = 13.52661183
ECCENTRICITY   = .00051944
INCLINATION    = 88.9973
RA_OF_ASC_NODE = 281.1646
ARG_OF_PERICENTER = 81.5864
MEAN_ANOMALY   = 278.5876

EPHEMERIS_TYPE = 0
CLASSIFICATION_TYPE = U
NORAD_CAT_ID   = 67557
ELEMENT_SET_NO = 999
REV_AT_EPOCH   = 293
BSTAR          = .56766192E-4
MEAN_MOTION_DOT = .5E-6
MEAN_MOTION_DDOT = 0

CCSDS_OMM_VERS = 2.0
CREATION_DATE  = 
ORIGINATOR     = 

OBJECT_NAME    = ELECTRON R/B
OBJECT_ID      = 2026-015C
CENTER_NAME    = EARTH
REF_FRAME      = TEME
TIME_SYSTEM    = UTC
MEAN_ELEMENT_THEORY = SGP/SGP4

EPOCH          = 2026-02-13T05:52:06.395808
MEAN_MOTION    = 15.41260165
ECCENTRICITY   = .04080241
INCLINATION    = 88.9885
RA_OF_ASC_NODE = 280.4989
ARG_OF_PERICENTER = 189.4853
MEAN_ANOMALY   = 169.8539

EPHEMERIS_TYPE = 0
CLASSIFICATION_TYPE = U
NORAD_CAT_ID   = 67558
ELEMENT_SET_NO = 999
REV_AT_EPOCH   = 328
BSTAR          = .16060046E-2
MEAN_MOTION_DOT = .270561E-1
MEAN_MOTION_DDOT = -.1106908E-5

CCSDS_OMM_VERS = 2.0
CREATION_DATE  = 
ORIGINATOR     = 

OBJECT_NAME    = ELECTRON KICK STAGE R/B
OBJECT_ID      = 2026-015D
CENTER_NAME    = EARTH
REF_FRAME      = TEME
TIME_SYSTEM    = UTC
MEAN_ELEMENT_THEORY = SGP/SGP4

EPOCH          = 2026-02-13T09:14:08.820384
MEAN_MOTION    = 14.68047247
ECCENTRICITY   = .0529087
INCLINATION    = 89.0512
RA_OF_ASC_NODE = 280.7776
ARG_OF_PERICENTER = 258.5027
MEAN_ANOMALY   = 95.6353

EPHEMERIS_TYPE = 0
CLASSIFICATION_TYPE = U
NORAD_CAT_ID   = 67559
ELEMENT_SET_NO = 999
REV_AT_EPOCH   = 322
BSTAR          = .1036E-2
MEAN_MOTION_DOT = .61382E-3
MEAN_MOTION_DDOT = .14763E-6

